start=new Date('2023-02-14T00:00:00.000Z').valueOf();
sats=[{"INCLINATION":"53.2157","OBJECT_ID":"2022-041BE","NORAD_CAT_ID":"52313","REF_FRAME":"TEME","EPOCH":"2023-02-13T19:17:38.326848","APOAPSIS":"541.171","REV_AT_EPOCH":"4680","MEAN_ANOMALY":"277.2152","EPHEMERIS_TYPE":"0","SEMIMAJOR_AXIS":"6917.854","CENTER_NAME":"EARTH","TLE_LINE1":"1 52313U 22041BE  23044.80391582  .00003435  00000-0  23375-3 0  9990","GP_ID":"225335827","DECAY_DATE":null,"CLASSIFICATION_TYPE":"U","PERIAPSIS":"538.268","MEAN_ELEMENT_THEORY":"SGP4","COUNTRY_CODE":"US","TIME_SYSTEM":"UTC","TLE_LINE2":"2 52313  53.2157  76.4894 0002098  82.9079 277.2152 15.08848530 46807","ARG_OF_PERICENTER":"82.9079","PERIOD":"95.437","OBJECT_NAME":"STARLINK-3749","MEAN_MOTION_DOT":"0.00003435","ELEMENT_SET_NO":"999","RA_OF_ASC_NODE":"76.4894","ECCENTRICITY":"0.00020980","BSTAR":"0.00023375000000","RCS_SIZE":"LARGE","MEAN_MOTION_DDOT":"0.0000000000000","MEAN_MOTION":"15.08848530","OBJECT_TYPE":"PAYLOAD","LAUNCH_DATE":"2022-04-21","SITE":"AFETR","FILE":"3789681"},{"ARG_OF_PERICENTER":"94.2448","PERIOD":"95.436","TLE_LINE2":"2 52331  53.2143 196.5353 0001013  94.2448 265.8659 15.08857684 46577","MEAN_MOTION_DOT":"0.00026666","ELEMENT_SET_NO":"999","OBJECT_NAME":"STARLINK-3889","DECAY_DATE":null,"TIME_SYSTEM":"UTC","COUNTRY_CODE":"US","CLASSIFICATION_TYPE":"U","MEAN_ELEMENT_THEORY":"SGP4","PERIAPSIS":"538.991","LAUNCH_DATE":"2022-04-29","OBJECT_TYPE":"PAYLOAD","RCS_SIZE":"LARGE","MEAN_MOTION_DDOT":"0.0000000000000","MEAN_MOTION":"15.08857684","FILE":"3789746","SITE":"AFETR","RA_OF_ASC_NODE":"196.5353","BSTAR":"0.00168640000000","ECCENTRICITY":"0.00010130","REF_FRAME":"TEME","NORAD_CAT_ID":"52331","APOAPSIS":"540.392","REV_AT_EPOCH":"4657","EPOCH":"2023-02-13T19:01:44.215968","INCLINATION":"53.2143","OBJECT_ID":"2022-045A","EPHEMERIS_TYPE":"0","MEAN_ANOMALY":"265.8659","TLE_LINE1":"1 52331U 22045A   23044.79287287  .00026666  00000-0  16864-2 0  9993","GP_ID":"225337163","SEMIMAJOR_AXIS":"6917.826","CENTER_NAME":"EARTH"},{"EPHEMERIS_TYPE":"0","MEAN_ANOMALY":"266.3186","TLE_LINE1":"1 52332U 22045B   23044.53895916  .00001017  00000-0  81969-4 0  9993","GP_ID":"225326498","CENTER_NAME":"EARTH","SEMIMAJOR_AXIS":"6917.898","REF_FRAME":"TEME","NORAD_CAT_ID":"52332","APOAPSIS":"540.608","REV_AT_EPOCH":"4653","EPOCH":"2023-02-13T12:56:06.071424","INCLINATION":"53.2162","OBJECT_ID":"2022-045B","LAUNCH_DATE":"2022-04-29","OBJECT_TYPE":"PAYLOAD","MEAN_MOTION_DDOT":"0.0000000000000","RCS_SIZE":"LARGE","MEAN_MOTION":"15.08834120","SITE":"AFETR","FILE":"3789366","RA_OF_ASC_NODE":"197.6694","BSTAR":"0.00008196900000","ECCENTRICITY":"0.00012210","ARG_OF_PERICENTER":"93.7946","PERIOD":"95.438","TLE_LINE2":"2 52332  53.2162 197.6694 0001221  93.7946 266.3186 15.08834120 46534","MEAN_MOTION_DOT":"0.00001017","ELEMENT_SET_NO":"999","OBJECT_NAME":"STARLINK-3831","DECAY_DATE":null,"TIME_SYSTEM":"UTC","COUNTRY_CODE":"US","CLASSIFICATION_TYPE":"U","MEAN_ELEMENT_THEORY":"SGP4","PERIAPSIS":"538.919"},{"TLE_LINE2":"2 52333  53.2156 196.4982 0000928  99.7293 260.3804 15.08850734 46562","ARG_OF_PERICENTER":"99.7293","PERIOD":"95.437","OBJECT_NAME":"STARLINK-3847","ELEMENT_SET_NO":"999","MEAN_MOTION_DOT":"0.00003083","DECAY_DATE":null,"CLASSIFICATION_TYPE":"U","PERIAPSIS":"539.071","MEAN_ELEMENT_THEORY":"SGP4","COUNTRY_CODE":"US","TIME_SYSTEM":"UTC","RCS_SIZE":"LARGE","MEAN_MOTION":"15.08850734","MEAN_MOTION_DDOT":"0.0000000000000","LAUNCH_DATE":"2022-04-29","OBJECT_TYPE":"PAYLOAD","SITE":"AFETR","FILE":"3789746","RA_OF_ASC_NODE":"196.4982","ECCENTRICITY":"0.00009280","BSTAR":"0.00021166000000","NORAD_CAT_ID":"52333","REF_FRAME":"TEME","EPOCH":"2023-02-13T19:12:19.735488","APOAPSIS":"540.355","REV_AT_EPOCH":"4656","INCLINATION":"53.2156","OBJECT_ID":"2022-045C","MEAN_ANOMALY":"260.3804","EPHEMERIS_TYPE":"0","CENTER_NAME":"EARTH","SEMIMAJOR_AXIS":"6917.848","TLE_LINE1":"1 52333U 22045C   23044.80022842  .00003083  00000-0  21166-3 0  9991","GP_ID":"225337166"},{"OBJECT_TYPE":"PAYLOAD","LAUNCH_DATE":"2022-04-29","RCS_SIZE":"LARGE","MEAN_MOTION":"15.08847421","MEAN_MOTION_DDOT":"0.0000000000000","SITE":"AFETR","FILE":"3789808","RA_OF_ASC_NODE":"196.8532","BSTAR":"0.00009342500000","ECCENTRICITY":"0.00010840","ARG_OF_PERICENTER":"96.6090","PERIOD":"95.437","TLE_LINE2":"2 52334  53.2132 196.8532 0001084  96.6090 263.5025 15.08847421 46555","ELEMENT_SET_NO":"999","MEAN_MOTION_DOT":"0.00001200","OBJECT_NAME":"STARLINK-3880","DECAY_DATE":null,"TIME_SYSTEM":"UTC","COUNTRY_CODE":"US","CLASSIFICATION_TYPE":"U","PERIAPSIS":"538.973","MEAN_ELEMENT_THEORY":"SGP4","EPHEMERIS_TYPE":"0","MEAN_ANOMALY":"263.5025","TLE_LINE1":"1 52334U 22045D   23044.72295191  .00001200  00000-0  93425-4 0  9999","GP_ID":"225338840","CENTER_NAME":"EARTH","SEMIMAJOR_AXIS":"6917.858","REF_FRAME":"TEME","NORAD_CAT_ID":"52334","APOAPSIS":"540.473","REV_AT_EPOCH":"4655","EPOCH":"2023-02-13T17:21:03.045024","OBJECT_ID":"2022-045D","INCLINATION":"53.2132"},{"CLASSIFICATION_TYPE":"U","MEAN_ELEMENT_THEORY":"SGP4","PERIAPSIS":"538.969","TIME_SYSTEM":"UTC","COUNTRY_CODE":"US","DECAY_DATE":null,"OBJECT_NAME":"STARLINK-3814","MEAN_MOTION_DOT":"0.00021408","ELEMENT_SET_NO":"999","TLE_LINE2":"2 52335  53.2138 196.8680 0001053  87.3233 272.7880 15.08855594 46560","ARG_OF_PERICENTER":"87.3233","PERIOD":"95.437","ECCENTRICITY":"0.00010530","BSTAR":"0.00135850000000","RA_OF_ASC_NODE":"196.8680","SITE":"AFETR","FILE":"3789808","MEAN_MOTION":"15.08855594","RCS_SIZE":"LARGE","MEAN_MOTION_DDOT":"0.0000000000000","OBJECT_TYPE":"PAYLOAD","LAUNCH_DATE":"2022-04-29","OBJECT_ID":"2022-045E","INCLINATION":"53.2138","EPOCH":"2023-02-13T17:15:45.069696","APOAPSIS":"540.426","REV_AT_EPOCH":"4656","NORAD_CAT_ID":"52335","REF_FRAME":"TEME","SEMIMAJOR_AXIS":"6917.833","CENTER_NAME":"EARTH","TLE_LINE1":"1 52335U 22045E   23044.71927164  .00021408  00000-0  13585-2 0  9990","GP_ID":"225338839","MEAN_ANOMALY":"272.7880","EPHEMERIS_TYPE":"0"},{"EPOCH":"2023-02-13T17:06:32.245344","APOAPSIS":"540.481","REV_AT_EPOCH":"4656","NORAD_CAT_ID":"52336","REF_FRAME":"TEME","INCLINATION":"53.2136","OBJECT_ID":"2022-045F","CENTER_NAME":"EARTH","SEMIMAJOR_AXIS":"6917.866","TLE_LINE1":"1 52336U 22045F   23044.71287321  .00004013  00000-0  27003-3 0  9999","GP_ID":"225338335","MEAN_ANOMALY":"261.6949","EPHEMERIS_TYPE":"0","OBJECT_NAME":"STARLINK-3823","MEAN_MOTION_DOT":"0.00004013","ELEMENT_SET_NO":"999","TLE_LINE2":"2 52336  53.2136 196.8979 0001085  98.4166 261.6949 15.08844848 46566","ARG_OF_PERICENTER":"98.4166","PERIOD":"95.437","CLASSIFICATION_TYPE":"U","PERIAPSIS":"538.980","MEAN_ELEMENT_THEORY":"SGP4","TIME_SYSTEM":"UTC","COUNTRY_CODE":"US","DECAY_DATE":null,"SITE":"AFETR","FILE":"3789808","MEAN_MOTION":"15.08844848","RCS_SIZE":"LARGE","MEAN_MOTION_DDOT":"0.0000000000000","OBJECT_TYPE":"PAYLOAD","LAUNCH_DATE":"2022-04-29","ECCENTRICITY":"0.00010850","BSTAR":"0.00027003000000","RA_OF_ASC_NODE":"196.8979"},{"FILE":"3789366","SITE":"AFETR","OBJECT_TYPE":"PAYLOAD","LAUNCH_DATE":"2022-04-29","RCS_SIZE":"LARGE","MEAN_MOTION":"15.08828448","MEAN_MOTION_DDOT":"0.0000000000000","BSTAR":"0.00006340400000","ECCENTRICITY":"0.00011710","RA_OF_ASC_NODE":"197.7003","MEAN_MOTION_DOT":"0.00000721","ELEMENT_SET_NO":"999","OBJECT_NAME":"STARLINK-3797","PERIOD":"95.438","ARG_OF_PERICENTER":"96.3440","TLE_LINE2":"2 52337  53.2176 197.7003 0001171  96.3440 263.7685 15.08828448 46532","TIME_SYSTEM":"UTC","COUNTRY_CODE":"US","PERIAPSIS":"538.971","MEAN_ELEMENT_THEORY":"SGP4","CLASSIFICATION_TYPE":"U","DECAY_DATE":null,"GP_ID":"225325269","TLE_LINE1":"1 52337U 22045G   23044.53160298  .00000721  00000-0  63404-4 0  9991","SEMIMAJOR_AXIS":"6917.916","CENTER_NAME":"EARTH","EPHEMERIS_TYPE":"0","MEAN_ANOMALY":"263.7685","APOAPSIS":"540.591","REV_AT_EPOCH":"4653","EPOCH":"2023-02-13T12:45:30.497472","REF_FRAME":"TEME","NORAD_CAT_ID":"52337","OBJECT_ID":"2022-045G","INCLINATION":"53.2176"},{"OBJECT_ID":"2022-045H","INCLINATION":"53.2153","REF_FRAME":"TEME","NORAD_CAT_ID":"52338","REV_AT_EPOCH":"4652","APOAPSIS":"535.772","EPOCH":"2023-02-13T10:00:40.941792","EPHEMERIS_TYPE":"0","MEAN_ANOMALY":"284.4509","TLE_LINE1":"1 52338U 22045H   23044.41714053  .00033782  00000-0  20336-2 0  9991","GP_ID":"225325519","CENTER_NAME":"EARTH","SEMIMAJOR_AXIS":"6912.691","DECAY_DATE":null,"TIME_SYSTEM":"UTC","COUNTRY_CODE":"US","CLASSIFICATION_TYPE":"U","MEAN_ELEMENT_THEORY":"SGP4","PERIAPSIS":"533.341","ARG_OF_PERICENTER":"75.6679","PERIOD":"95.330","TLE_LINE2":"2 52338  53.2153 198.0314 0001758  75.6679 284.4509 15.10539230 46527","MEAN_MOTION_DOT":"0.00033782","ELEMENT_SET_NO":"999","OBJECT_NAME":"STARLINK-3815","RA_OF_ASC_NODE":"198.0314","BSTAR":"0.00203360000000","ECCENTRICITY":"0.00017580","OBJECT_TYPE":"PAYLOAD","LAUNCH_DATE":"2022-04-29","MEAN_MOTION":"15.10539230","RCS_SIZE":"LARGE","MEAN_MOTION_DDOT":"0.0000000000000","SITE":"AFETR","FILE":"3789366"},{"REV_AT_EPOCH":"4653","APOAPSIS":"540.507","EPOCH":"2023-02-13T12:09:46.997280","REF_FRAME":"TEME","NORAD_CAT_ID":"52339","OBJECT_ID":"2022-045J","INCLINATION":"53.2144","GP_ID":"225325771","TLE_LINE1":"1 52339U 22045J   23044.50679395  .00000117  00000-0  25425-4 0  9993","CENTER_NAME":"EARTH","SEMIMAJOR_AXIS":"6917.889","EPHEMERIS_TYPE":"0","MEAN_ANOMALY":"255.2544","MEAN_MOTION_DOT":"0.00000117","ELEMENT_SET_NO":"999","OBJECT_NAME":"STARLINK-3792","PERIOD":"95.438","ARG_OF_PERICENTER":"104.8569","TLE_LINE2":"2 52339  53.2144 197.8161 0001088 104.8569 255.2544 15.08837224 46531","COUNTRY_CODE":"US","TIME_SYSTEM":"UTC","MEAN_ELEMENT_THEORY":"SGP4","PERIAPSIS":"539.001","CLASSIFICATION_TYPE":"U","DECAY_DATE":null,"FILE":"3789366","SITE":"AFETR","LAUNCH_DATE":"2022-04-29","OBJECT_TYPE":"PAYLOAD","MEAN_MOTION":"15.08837224","RCS_SIZE":"LARGE","MEAN_MOTION_DDOT":"0.0000000000000","BSTAR":"0.00002542500000","ECCENTRICITY":"0.00010880","RA_OF_ASC_NODE":"197.8161"}];
